$$SOE
2460728.500000000, A.D. 2025-Feb-22 00:00:00.0000, -1.162535259947416E+08, 2.284969981093720E+08, -1.004394174173397E+08,
2460735.500000000, A.D. 2025-Mar-01 00:00:00.0000, -1.261709608844421E+08, 2.219406368235231E+08, -9.739055027359442E+07,
2460742.500000000, A.D. 2025-Mar-08 00:00:00.0000, -1.357880363629253E+08, 2.148562736287037E+08, -9.410995263423920E+07,
2460749.500000000, A.D. 2025-Mar-15 00:00:00.0000, -1.450738895579424E+08, 2.072481610713453E+08, -9.059991237279776E+07,
2460756.500000000, A.D. 2025-Mar-22 00:00:00.0000, -1.539966368361712E+08, 1.991216659473525E+08, -8.686322597865362E+07,
2460763.500000000, A.D. 2025-Mar-29 00:00:00.0000, -1.625233333279324E+08, 1.904834045229740E+08, -8.290326025094031E+07,
2460770.500000000, A.D. 2025-Apr-05 00:00:00.0000, -1.706199381770174E+08, 1.813413955889749E+08, -7.872402154647908E+07,
2460777.500000000, A.D. 2025-Apr-12 00:00:00.0000, -1.782512899103581E+08, 1.717052329704933E+08, -7.433023304719412E+07,
2460784.500000000, A.D. 2025-Apr-19 00:00:00.0000, -1.853810951289769E+08, 1.615862781201973E+08, -6.972742073296997E+07,
2460791.500000000, A.D. 2025-Apr-26 00:00:00.0000, -1.919719339213599E+08, 1.509978740186731E+08, -6.492200868709535E+07,
2460798.500000000, A.D. 2025-May-03 00:00:00.0000, -1.979852863238330E+08, 1.399555816593848E+08, -5.992142424680291E+07,
2460805.500000000, A.D. 2025-May-10 00:00:00.0000, -2.033815851115276E+08, 1.284774400875474E+08, -5.473421336200557E+07,
2460812.500000000, A.D. 2025-May-17 00:00:00.0000, -2.081203011791523E+08, 1.165842504401787E+08, -4.937016630721834E+07,
2460819.500000000, A.D. 2025-May-24 00:00:00.0000, -2.121600687171745E+08, 1.042998837198621E+08, -4.384045357859574E+07,
2460826.500000000, A.D. 2025-May-31 00:00:00.0000, -2.154588583026355E+08, 9.165161140471897E+07, -3.815777134144635E+07,
2460833.500000000, A.D. 2025-Jun-07 00:00:00.0000, -2.179742080283113E+08, 7.867045752454436E+07, -3.233649502186161E+07,
2460840.500000000, A.D. 2025-Jun-14 00:00:00.0000, -2.196635259043563E+08, 6.539156714331105E+07, -2.639283878862698E+07,
2460847.500000000, A.D. 2025-Jun-21 00:00:00.0000, -2.204844741747197E+08, 5.185458124253530E+07, -2.034501815694096E+07,
2460854.500000000, A.D. 2025-Jun-28 00:00:00.0000, -2.203954448956556E+08, 3.810401008188525E+07, -1.421341136424652E+07,
2460861.500000000, A.D. 2025-Jul-05 00:00:00.0000, -2.193561408077323E+08, 2.418959382976640E+07, -8.020713070357037E+06,
2460868.500000000, A.D. 2025-Jul-12 00:00:00.0000, -2.173282744565674E+08, 1.016663194350396E+07, -1.792072304300541E+06,
2460875.500000000, A.D. 2025-Jul-19 00:00:00.0000, -2.142763951318363E+08, -3.903741905902899E+06, 4.444795486817266E+06,
2460882.500000000, A.D. 2025-Jul-26 00:00:00.0000, -2.101688494401122E+08, -1.795436742331972E+07, 1.065953483759919E+07,
2460889.500000000, A.D. 2025-Aug-02 00:00:00.0000, -2.049788756081761E+08, -3.191198124005008E+07, 1.681913004310234E+07,
2460896.500000000, A.D. 2025-Aug-09 00:00:00.0000, -1.986858232274815E+08, -4.569729485893348E+07, 2.288795534291231E+07,
2460903.500000000, A.D. 2025-Aug-16 00:00:00.0000, -1.912764787902867E+08, -5.922526907440887E+07, 2.882791398676245E+07,
2460910.500000000, A.D. 2025-Aug-23 00:00:00.0000, -1.827464629443446E+08, -7.240562801187497E+07, 3.459868497395363E+07,
2460917.500000000, A.D. 2025-Aug-30 00:00:00.0000, -1.731016486852533E+08, -8.514365260179009E+07, 4.015809492917365E+07,
2460924.500000000, A.D. 2025-Sep-06 00:00:00.0000, -1.623595334043996E+08, -9.734128522395985E+07, 4.546262905738091E+07,
2460931.500000000, A.D. 2025-Sep-13 00:00:00.0000, -1.505504804338422E+08, -1.088985665927742E+08, 5.046808832491798E+07,
2460938.500000000, A.D. 2025-Sep-20 00:00:00.0000, -1.377187264955307E+08, -1.197154039719369E+08, 5.513039002202625E+07,
2460945.500000000, A.D. 2025-Sep-27 00:00:00.0000, -1.239230459559423E+08, -1.296936372537994E+08, 5.940649697397724E+07,
2460952.500000000, A.D. 2025-Oct-04 00:00:00.0000, -1.092369682354774E+08, -1.387393393314948E+08, 6.325544620945609E+07,
2460959.500000000, A.D. 2025-Oct-11 00:00:00.0000, -9.374845849358697E+07, -1.467652545405388E+08, 6.663943257968629E+07,
2460966.500000000, A.D. 2025-Oct-18 00:00:00.0000, -7.755900090613662E+07, -1.536932476321405E+08, 6.952488948184165E+07,
2460973.500000000, A.D. 2025-Oct-25 00:00:00.0000, -6.078206725536406E+07, -1.594566139626491E+08, 7.188349984500670E+07,
2460980.500000000, A.D. 2025-Nov-01 00:00:00.0000, -4.354100627969804E+07, -1.640020944968881E+08, 7.369306809359995E+07,
2460987.500000000, A.D. 2025-Nov-08 00:00:00.0000, -2.596644444903257E+07, -1.672914502287216E+08, 7.493818938526891E+07,
2460994.500000000, A.D. 2025-Nov-15 00:00:00.0000, -8.193338146013524E+06, -1.693024802647771E+08, 7.561066622481906E+07,
2461001.500000000, A.D. 2025-Nov-22 00:00:00.0000, 9.642147603708155E+06, -1.700294127394749E+08, 7.570964315742998E+07,
2461008.500000000, A.D. 2025-Nov-29 00:00:00.0000, 2.740574283034146E+07, -1.694826512740666E+08, 7.524145485288776E+07,
2461015.500000000, A.D. 2025-Dec-06 00:00:00.0000, 4.496797274482312E+07, -1.676879164295289E+08, 7.421920762790479E+07,
2461022.500000000, A.D. 2025-Dec-13 00:00:00.0000, 6.220669871006571E+07, -1.646848730394137E+08, 7.266213508615838E+07,
2461029.500000000, A.D. 2025-Dec-20 00:00:00.0000, 7.900919026163618E+07, -1.605253644297780E+08, 7.059478349689212E+07,
2461036.500000000, A.D. 2025-Dec-27 00:00:00.0000, 9.527366388281742E+07, -1.552713904344969E+08, 6.804609024712963E+07,
2461043.500000000, A.D. 2026-Jan-03 00:00:00.0000, 1.109102734224042E+08, -1.489929697895958E+08, 6.504841805904788E+07,
2461050.500000000, A.D. 2026-Jan-10 00:00:00.0000, 1.258415812691412E+08, -1.417660138931530E+08, 6.163660088542181E+07,
2461057.500000000, A.D. 2026-Jan-17 00:00:00.0000, 1.400025712521631E+08, -1.336703150784105E+08, 5.784704666348731E+07,
2461064.500000000, A.D. 2026-Jan-24 00:00:00.0000, 1.533402834785704E+08, -1.247877245476869E+08, 5.371692943799499E+07,
2461071.500000000, A.D. 2026-Jan-31 00:00:00.0000, 1.658131590758491E+08, -1.152005669849256E+08, 4.928349066879094E+07,
2461078.500000000, A.D. 2026-Feb-07 00:00:00.0000, 1.773901812366039E+08, -1.049903136325232E+08, 4.458345821728168E+07,
2461085.500000000, A.D. 2026-Feb-14 00:00:00.0000, 1.880498909585100E+08, -9.423651498756136E+07, 3.965258242581383E+07,
2461092.500000000, A.D. 2026-Feb-21 00:00:00.0000, 1.977793440564904E+08, -8.301597856345624E+07, 3.452528228924955E+07,
2461099.500000000, A.D. 2026-Feb-28 00:00:00.0000, 2.065730611136099E+08, -7.140216687674399E+07, 2.923439083878670E+07,
2461106.500000000, A.D. 2026-Mar-07 00:00:00.0000, 2.144320077429917E+08, -5.946478874261770E+07, 2.381098648440690E+07,
2461113.500000000, A.D. 2026-Mar-14 00:00:00.0000, 2.213626352954132E+08, -4.726955555419647E+07, 1.828429583242964E+07,
2461120.500000000, A.D. 2026-Mar-21 00:00:00.0000, 2.273760009779610E+08, -3.487806962422417E+07, 1.268165438568639E+07,
2461127.500000000, A.D. 2026-Mar-28 00:00:00.0000, 2.324869744560109E+08, -2.234781578523849E+07, 7.028512849504405E+06,
2461134.500000000, A.D. 2026-Apr-04 00:00:00.0000, 2.367135332861548E+08, -9.732232604077429E+06, 1.348477990339673E+06,
2461141.500000000, A.D. 2026-Apr-11 00:00:00.0000, 2.400761460109932E+08, 2.919157493820718E+06, -4.336621384284702E+06,
2461148.500000000, A.D. 2026-Apr-18 00:00:00.0000, 2.425972386776107E+08, 1.556057669915029E+07, -1.000665109232164E+07,
2461155.500000000, A.D. 2026-Apr-25 00:00:00.0000, 2.443007386097246E+08, 2.814979310483855E+07, -1.564307714650431E+07,
2461162.500000000, A.D. 2026-May-02 00:00:00.0000, 2.452116882885066E+08, 4.064790600961550E+07, -2.122886515841503E+07,
2461169.500000000, A.D. 2026-May-09 00:00:00.0000, 2.453559219518164E+08, 5.301912385048880E+07, -2.674837738268375E+07,
2461176.500000000, A.D. 2026-May-16 00:00:00.0000, 2.447597978523074E+08, 6.523054142647494E+07, -3.218727025612404E+07,
2461183.500000000, A.D. 2026-May-23 00:00:00.0000, 2.434499791241500E+08, 7.725192221435875E+07, -3.753239438799649E+07,
2461190.500000000, A.D. 2026-May-30 00:00:00.0000, 2.414532546317022E+08, 8.905548951794530E+07, -4.277169818482190E+07,
2461197.500000000, A.D. 2026-Jun-06 00:00:00.0000, 2.387963936055771E+08, 1.006157254970171E+08, -4.789413628062849E+07,
2461204.500000000, A.D. 2026-Jun-13 00:00:00.0000, 2.355060324729757E+08, 1.119091797208039E+08, -5.288958366940571E+07,
2461211.500000000, A.D. 2026-Jun-20 00:00:00.0000, 2.316085887404305E+08, 1.229142909743540E+08, -5.774875555930004E+07,
2461218.500000000, A.D. 2026-Jun-27 00:00:00.0000, 2.271301961999480E+08, 1.336112222875940E+08, -6.246313292232995E+07,
2461225.500000000, A.D. 2026-Jul-04 00:00:00.0000, 2.220966579790766E+08, 1.439817083577904E+08, -6.702489374987467E+07,
2461232.500000000, A.D. 2026-Jul-11 00:00:00.0000, 2.165334147041773E+08, 1.540089149282914E+08, -7.142684988243793E+07,
2461239.500000000, A.D. 2026-Jul-18 00:00:00.0000, 2.104655253277874E+08, 1.636773096789669E+08, -7.566238918012641E+07,
2461246.500000000, A.D. 2026-Jul-25 00:00:00.0000, 2.039176584938355E+08, 1.729725440578856E+08, -7.972542275162810E+07,
2461253.500000000, A.D. 2026-Aug-01 00:00:00.0000, 1.969140926794503E+08, 1.818813453758665E+08, -8.361033694361167E+07,
2461260.500000000, A.D. 2026-Aug-08 00:00:00.0000, 1.894787238151893E+08, 1.903914184749348E+08, -8.731194980104838E+07,
2461267.500000000, A.D. 2026-Aug-15 00:00:00.0000, 1.816350795430305E+08, 1.984913567660313E+08, -9.082547169347337E+07,
2461274.500000000, A.D. 2026-Aug-22 00:00:00.0000, 1.734063383077116E+08, 2.061705632071366E+08, -9.414646963579090E+07,
2461281.500000000, A.D. 2026-Aug-29 00:00:00.0000, 1.648153501175718E+08, 2.134191792365150E+08, -9.727083491180140E+07,
2461288.500000000, A.D. 2026-Sep-05 00:00:00.0000, 1.558846604081306E+08, 2.202280182406461E+08, -1.001947541741296E+08,
2461295.500000000, A.D. 2026-Sep-12 00:00:00.0000, 1.466365389061256E+08, 2.265885055223376E+08, -1.029146838064198E+08,
$$EOE